start=new Date('2021-09-19T00:00:00.000Z').valueOf();
sats=[{"DECAY_DATE":null,"CLASSIFICATION_TYPE":"U","TLE_LINE2":"2 47388  53.0554 193.0888 0001724  78.1270 281.9912 15.06400563 36887","EPHEMERIS_TYPE":"0","GP_ID":"184946246","CENTER_NAME":"EARTH","APOAPSIS":"548.406","MEAN_MOTION":"15.06400563","SEMIMAJOR_AXIS":"6925.347","REV_AT_EPOCH":"3688","MEAN_MOTION_DOT":"0.00000101","TLE_LINE1":"1 47388U 21005AR  21261.54495310  .00000101  00000-0  25705-4 0  9996","MEAN_ELEMENT_THEORY":"SGP4","MEAN_ANOMALY":"281.9912","RA_OF_ASC_NODE":"193.0888","PERIOD":"95.592","TIME_SYSTEM":"UTC","COUNTRY_CODE":"US","LAUNCH_DATE":"2021-01-20","REF_FRAME":"TEME","RCS_SIZE":"LARGE","INCLINATION":"53.0554","EPOCH":"2021-09-18T13:04:43.947840","SITE":"AFETR","PERIAPSIS":"546.018","OBJECT_ID":"2021-005AR","OBJECT_TYPE":"PAYLOAD","FILE":"3118594","NORAD_CAT_ID":"47388","ECCENTRICITY":"0.00017240","OBJECT_NAME":"STARLINK-2109","MEAN_MOTION_DDOT":"0.0000000000000","BSTAR":"0.00002570500000","ARG_OF_PERICENTER":"78.1270","ELEMENT_SET_NO":"999"},{"EPHEMERIS_TYPE":"0","TLE_LINE2":"2 47389  53.0528 173.4775 0001882  63.3717 296.7465 15.06395419 37154","DECAY_DATE":null,"CLASSIFICATION_TYPE":"U","MEAN_MOTION_DOT":"-0.00000467","SEMIMAJOR_AXIS":"6925.363","REV_AT_EPOCH":"3715","APOAPSIS":"548.531","MEAN_MOTION":"15.06395419","CENTER_NAME":"EARTH","GP_ID":"184950711","MEAN_ELEMENT_THEORY":"SGP4","MEAN_ANOMALY":"296.7465","TLE_LINE1":"1 47389U 21005AS  21261.45833538 -.00000467  00000-0 -12421-4 0  9993","PERIOD":"95.592","TIME_SYSTEM":"UTC","RA_OF_ASC_NODE":"173.4775","RCS_SIZE":"LARGE","REF_FRAME":"TEME","COUNTRY_CODE":"US","LAUNCH_DATE":"2021-01-20","INCLINATION":"53.0528","NORAD_CAT_ID":"47389","FILE":"3118725","OBJECT_TYPE":"PAYLOAD","OBJECT_ID":"2021-005AS","EPOCH":"2021-09-18T11:00:00.176832","SITE":"AFETR","PERIAPSIS":"545.924","ELEMENT_SET_NO":"999","ARG_OF_PERICENTER":"63.3717","MEAN_MOTION_DDOT":"0.0000000000000","BSTAR":"-0.00001242100000","OBJECT_NAME":"STARLINK-2110","ECCENTRICITY":"0.00018820"},{"COUNTRY_CODE":"US","LAUNCH_DATE":"2021-01-20","REF_FRAME":"TEME","RCS_SIZE":"LARGE","INCLINATION":"53.0548","OBJECT_ID":"2021-005AT","SITE":"AFETR","EPOCH":"2021-09-18T12:27:35.779104","PERIAPSIS":"545.903","NORAD_CAT_ID":"47390","FILE":"3118742","OBJECT_TYPE":"PAYLOAD","OBJECT_NAME":"STARLINK-2111","ECCENTRICITY":"0.00019800","ELEMENT_SET_NO":"999","MEAN_MOTION_DDOT":"0.0000000000000","BSTAR":"-0.00003715200000","ARG_OF_PERICENTER":"67.1567","DECAY_DATE":null,"CLASSIFICATION_TYPE":"U","TLE_LINE2":"2 47390  53.0548 193.1935 0001980  67.1567 292.9631 15.06380273 36883","EPHEMERIS_TYPE":"0","APOAPSIS":"548.645","MEAN_MOTION":"15.06380273","GP_ID":"184951507","CENTER_NAME":"EARTH","MEAN_MOTION_DOT":"-0.00000835","REV_AT_EPOCH":"3688","SEMIMAJOR_AXIS":"6925.409","TLE_LINE1":"1 47390U 21005AT  21261.51916411 -.00000835  00000-0 -37152-4 0  9991","MEAN_ELEMENT_THEORY":"SGP4","MEAN_ANOMALY":"292.9631","PERIOD":"95.593","TIME_SYSTEM":"UTC","RA_OF_ASC_NODE":"193.1935"},{"INCLINATION":"53.0541","LAUNCH_DATE":"2021-01-20","COUNTRY_CODE":"US","REF_FRAME":"TEME","RCS_SIZE":"LARGE","ECCENTRICITY":"0.00020750","OBJECT_NAME":"STARLINK-2112","MEAN_MOTION_DDOT":"0.0000000000000","BSTAR":"-0.00001318400000","ARG_OF_PERICENTER":"62.6050","ELEMENT_SET_NO":"999","PERIAPSIS":"545.784","EPOCH":"2021-09-18T11:05:16.582272","SITE":"AFETR","OBJECT_ID":"2021-005AU","OBJECT_TYPE":"PAYLOAD","FILE":"3118594","NORAD_CAT_ID":"47391","CENTER_NAME":"EARTH","GP_ID":"184946496","MEAN_MOTION":"15.06397643","APOAPSIS":"548.658","SEMIMAJOR_AXIS":"6925.356","REV_AT_EPOCH":"3729","MEAN_MOTION_DOT":"-0.00000478","CLASSIFICATION_TYPE":"U","DECAY_DATE":null,"EPHEMERIS_TYPE":"0","TLE_LINE2":"2 47391  53.0541 163.4564 0002075  62.6050 297.5150 15.06397643 37290","RA_OF_ASC_NODE":"163.4564","TIME_SYSTEM":"UTC","PERIOD":"95.592","TLE_LINE1":"1 47391U 21005AU  21261.46199748 -.00000478  00000-0 -13184-4 0  9994","MEAN_ANOMALY":"297.5150","MEAN_ELEMENT_THEORY":"SGP4"},{"CLASSIFICATION_TYPE":"U","DECAY_DATE":null,"EPHEMERIS_TYPE":"0","TLE_LINE2":"2 47392  53.0529 163.4554 0002192  67.1599 292.9621 15.06374030 37909","APOAPSIS":"548.811","MEAN_MOTION":"15.06374030","CENTER_NAME":"EARTH","GP_ID":"184950213","MEAN_MOTION_DOT":"0.00002666","SEMIMAJOR_AXIS":"6925.428","REV_AT_EPOCH":"3790","TLE_LINE1":"1 47392U 21005AV  21261.46295039  .00002666  00000-0  19798-3 0  9990","MEAN_ELEMENT_THEORY":"SGP4","MEAN_ANOMALY":"292.9621","PERIOD":"95.594","TIME_SYSTEM":"UTC","RA_OF_ASC_NODE":"163.4554","COUNTRY_CODE":"US","LAUNCH_DATE":"2021-01-20","REF_FRAME":"TEME","RCS_SIZE":"LARGE","INCLINATION":"53.0529","OBJECT_ID":"2021-005AV","EPOCH":"2021-09-18T11:06:38.913696","SITE":"AFETR","PERIAPSIS":"545.775","FILE":"3118725","NORAD_CAT_ID":"47392","OBJECT_TYPE":"PAYLOAD","OBJECT_NAME":"STARLINK-2113","ECCENTRICITY":"0.00021920","ELEMENT_SET_NO":"999","BSTAR":"0.00019798000000","MEAN_MOTION_DDOT":"0.0000000000000","ARG_OF_PERICENTER":"67.1599"},{"REF_FRAME":"TEME","RCS_SIZE":"LARGE","LAUNCH_DATE":"2021-01-20","COUNTRY_CODE":"US","INCLINATION":"53.0408","OBJECT_TYPE":"PAYLOAD","FILE":"3118594","NORAD_CAT_ID":"47393","PERIAPSIS":"545.721","EPOCH":"2021-09-18T09:19:48.077760","SITE":"AFETR","OBJECT_ID":"2021-005AW","MEAN_MOTION_DDOT":"0.0000000000000","ARG_OF_PERICENTER":"83.2187","BSTAR":"0.00008185900000","ELEMENT_SET_NO":"999","ECCENTRICITY":"0.00022060","OBJECT_NAME":"STARLINK-2114","TLE_LINE2":"2 47393  53.0408 138.8545 0002206  83.2187 276.9053 15.06388560 37634","EPHEMERIS_TYPE":"0","CLASSIFICATION_TYPE":"U","DECAY_DATE":null,"REV_AT_EPOCH":"3763","SEMIMAJOR_AXIS":"6925.384","MEAN_MOTION_DOT":"0.00000937","GP_ID":"184946998","CENTER_NAME":"EARTH","MEAN_MOTION":"15.06388560","APOAPSIS":"548.776","MEAN_ANOMALY":"276.9053","MEAN_ELEMENT_THEORY":"SGP4","TLE_LINE1":"1 47393U 21005AW  21261.38875090  .00000937  00000-0  81859-4 0  9990","RA_OF_ASC_NODE":"138.8545","TIME_SYSTEM":"UTC","PERIOD":"95.593"},{"ARG_OF_PERICENTER":"55.5266","MEAN_MOTION_DDOT":"0.0000000000000","BSTAR":"0.00009800600000","ELEMENT_SET_NO":"999","ECCENTRICITY":"0.00023210","OBJECT_NAME":"STARLINK-2115","OBJECT_TYPE":"PAYLOAD","FILE":"3118781","NORAD_CAT_ID":"47394","PERIAPSIS":"545.624","EPOCH":"2021-09-18T16:05:49.065792","SITE":"AFETR","OBJECT_ID":"2021-005AX","INCLINATION":"53.0567","RCS_SIZE":"LARGE","REF_FRAME":"TEME","LAUNCH_DATE":"2021-01-20","COUNTRY_CODE":"US","RA_OF_ASC_NODE":"157.5314","TIME_SYSTEM":"UTC","PERIOD":"95.593","MEAN_ANOMALY":"304.5942","MEAN_ELEMENT_THEORY":"SGP4","TLE_LINE1":"1 47394U 21005AX  21261.67070678  .00001178  00000-0  98006-4 0  9992","REV_AT_EPOCH":"3740","SEMIMAJOR_AXIS":"6925.367","MEAN_MOTION_DOT":"0.00001178","CENTER_NAME":"EARTH","GP_ID":"184973855","MEAN_MOTION":"15.06394111","APOAPSIS":"548.839","TLE_LINE2":"2 47394  53.0567 157.5314 0002321  55.5266 304.5942 15.06394111 37400","EPHEMERIS_TYPE":"0","DECAY_DATE":null,"CLASSIFICATION_TYPE":"U"},{"DECAY_DATE":null,"CLASSIFICATION_TYPE":"U","TLE_LINE2":"2 47395  53.0552 153.5433 0002234  62.5830 297.5386 15.06395067 37438","EPHEMERIS_TYPE":"0","MEAN_MOTION":"15.06395067","APOAPSIS":"548.776","GP_ID":"184945997","CENTER_NAME":"EARTH","MEAN_MOTION_DOT":"0.00000953","SEMIMAJOR_AXIS":"6925.364","REV_AT_EPOCH":"3743","TLE_LINE1":"1 47395U 21005AY  21261.44176048  .00000953  00000-0  82893-4 0  9993","MEAN_ANOMALY":"297.5386","MEAN_ELEMENT_THEORY":"SGP4","TIME_SYSTEM":"UTC","PERIOD":"95.592","RA_OF_ASC_NODE":"153.5433","LAUNCH_DATE":"2021-01-20","COUNTRY_CODE":"US","RCS_SIZE":"LARGE","REF_FRAME":"TEME","INCLINATION":"53.0552","OBJECT_ID":"2021-005AY","PERIAPSIS":"545.682","SITE":"AFETR","EPOCH":"2021-09-18T10:36:08.105472","FILE":"3118594","NORAD_CAT_ID":"47395","OBJECT_TYPE":"PAYLOAD","OBJECT_NAME":"STARLINK-2117","ECCENTRICITY":"0.00022340","ELEMENT_SET_NO":"999","MEAN_MOTION_DDOT":"0.0000000000000","BSTAR":"0.00008289300000","ARG_OF_PERICENTER":"62.5830"},{"APOAPSIS":"548.765","MEAN_MOTION":"15.06391466","GP_ID":"184946247","CENTER_NAME":"EARTH","MEAN_MOTION_DOT":"-0.00000283","SEMIMAJOR_AXIS":"6925.375","REV_AT_EPOCH":"3725","CLASSIFICATION_TYPE":"U","DECAY_DATE":null,"TLE_LINE2":"2 47396  53.0554 164.8413 0002202  62.9362 297.1851 15.06391466 37255","EPHEMERIS_TYPE":"0","PERIOD":"95.593","TIME_SYSTEM":"UTC","RA_OF_ASC_NODE":"164.8413","TLE_LINE1":"1 47396U 21005AZ  21261.15333010 -.00000283  00000-0 -61299-7 0  9994","MEAN_ELEMENT_THEORY":"SGP4","MEAN_ANOMALY":"297.1851","INCLINATION":"53.0554","COUNTRY_CODE":"US","LAUNCH_DATE":"2021-01-20","RCS_SIZE":"LARGE","REF_FRAME":"TEME","OBJECT_NAME":"STARLINK-2118","ECCENTRICITY":"0.00022020","ELEMENT_SET_NO":"999","MEAN_MOTION_DDOT":"0.0000000000000","ARG_OF_PERICENTER":"62.9362","BSTAR":"-0.00000006129900","OBJECT_ID":"2021-005AZ","EPOCH":"2021-09-18T03:40:47.720640","SITE":"AFETR","PERIAPSIS":"545.715","FILE":"3118594","NORAD_CAT_ID":"47396","OBJECT_TYPE":"PAYLOAD"},{"RCS_SIZE":"LARGE","REF_FRAME":"TEME","LAUNCH_DATE":"2021-01-20","COUNTRY_CODE":"US","INCLINATION":"53.0554","OBJECT_TYPE":"PAYLOAD","NORAD_CAT_ID":"47397","FILE":"3118594","PERIAPSIS":"545.968","SITE":"AFETR","EPOCH":"2021-09-18T13:10:03.212256","OBJECT_ID":"2021-005BA","MEAN_MOTION_DDOT":"0.0000000000000","BSTAR":"0.00008879600000","ARG_OF_PERICENTER":"68.8365","ELEMENT_SET_NO":"999","ECCENTRICITY":"0.00018160","OBJECT_NAME":"STARLINK-2119","EPHEMERIS_TYPE":"0","TLE_LINE2":"2 47397  53.0554 193.0836 0001816  68.8365 291.2818 15.06396020 36895","DECAY_DATE":null,"CLASSIFICATION_TYPE":"U","SEMIMAJOR_AXIS":"6925.361","REV_AT_EPOCH":"3689","MEAN_MOTION_DOT":"0.00001041","CENTER_NAME":"EARTH","GP_ID":"184947498","MEAN_MOTION":"15.06396020","APOAPSIS":"548.483","MEAN_ANOMALY":"291.2818","MEAN_ELEMENT_THEORY":"SGP4","TLE_LINE1":"1 47397U 21005BA  21261.54864829  .00001041  00000-0  88796-4 0  9994","RA_OF_ASC_NODE":"193.0836","TIME_SYSTEM":"UTC","PERIOD":"95.592"}];
